UNKNOWN                 
1 87335U          25256.52412471  .00012266  00000+0  77302-2 0  9999
2 87335  89.9956 268.1098 0090887 140.6582 220.1249 14.02118600374317
UNKNOWN                 
1 87405U          25253.39581531  .00001603  00000+0  11496-2 0  9998
2 87405  82.7503 133.7175 0056750 239.4304 120.1258 13.95743483598138
UNKNOWN                 
1 87426U          25256.20061219  .00003699  00000+0  14813-2 0  9993
2 87426  65.7841 219.7499 0064557 331.4640  44.4209 14.28347250609654
UNKNOWN                 
1 87448U          25256.34716183  .00001201  00000+0  99710-3 0  9996
2 87448 100.4617  91.7167 0064097  76.8201 284.0094 13.90221321596677
UNKNOWN                 
1 87456U          25255.95509206  .00003144  00000+0  51293-3 0  9999
2 87456  65.7825 331.5442 0510393  52.1314 312.4809 14.11454790598672
UNKNOWN                 
1 87517U          25254.29919368  .00001456  00000+0  44287-3 0  9996
2 87517  65.8221  97.8302 0672435 350.6538 186.0509 13.60246132580336
UNKNOWN                 
1 87541U          25252.36084022  .00000162  00000+0  39543-3 0  9991
2 87541  99.7148 110.9754 0059646 130.1105  49.9780 13.35527954569431
UNKNOWN                 
1 87553U          25253.31799706  .00002141  00000+0  65984-3 0  9999
2 87553  65.6686 221.8145 0706670 268.6170  83.3895 13.52592903578618
UNKNOWN                 
1 87557U          25256.29892180  .00003137  00000+0  71152-2 0  9992
2 87557 101.7144 100.1862 0055578 234.1644 125.4299 13.26710267553037
UNKNOWN                 
1 87561U          25250.93386150 -.00000097  00000+0 -42698-3 0  9995
2 87561 102.0257 311.0768 0175396 108.9759  74.4336 12.32153064530633
UNKNOWN                 
1 87565U          25255.21054973  .00000959  00000+0  54149-3 0  9999
2 87565  99.9384 237.9303 0174291  58.7506 303.0603 14.05571169603572
UNKNOWN                 
1 87569U          25256.34642543 -.00000037  00000+0  55159-4 0  9995
2 87569 101.9894  70.2256 0055886  70.8252  47.1105 12.68537038547004
UNKNOWN                 
1 87587U          25254.32449551  .00000139  00000+0  52624-4 0  9991
2 87587  74.0223 273.7779 0021159 329.5593  30.4332 14.39981293620508
UNKNOWN                 
1 87590U          25253.06324703  .00000488  00000+0  29943-3 0  9990
2 87590  98.8018 292.2612 0027369 186.1126 203.8995 14.10151716141044
UNKNOWN                 
1 87616U          25236.35124245  .00000905  00000+0  31557-2 0  9998
2 87616  66.0386   5.6521 0640351 186.4296 206.7860 12.46745406522471
UNKNOWN                 
1 87624U          25256.26672309  .00002697  00000+0  44277-3 0  9992
2 87624  98.6679 188.1534 0101092 169.8217 190.5066 14.68244578566992
UNKNOWN                 
1 87650U          25254.15900107  .00009817  00000+0  21154-2 0  9996
2 87650 100.2706  47.5061 0035085 192.7577 167.2731 14.58321448 66252
UNKNOWN                 
1 87672U          25254.14277690  .00002374  00000+0  97407-3 0  9999
2 87672  70.8584 206.6125 0056492  52.7421 307.8840 14.27237897611247
UNKNOWN                 
1 87681U          25253.92035126  .00000791  00000+0  88057-3 0  9992
2 87681  66.7379 318.4972 0164872 223.8154 134.9737 13.70855214589111
UNKNOWN                 
1 87690U          25256.32816374  .00003825  00000+0  60932-3 0  9994
2 87690  65.7932 228.7885 0580672  94.2956 272.4661 13.98998695594729
UNKNOWN                 
1 87706U          25256.46956709  .00003652  00000+0  66271-3 0  9994
2 87706  98.6769  75.2934 0107229 186.9426 230.2040 14.63223556565310
UNKNOWN                 
1 87725U          25256.21088885  .00020762  00000+0  23334-2 0  9992
2 87725  82.8710 337.7183 0008559 353.2318   6.8782 14.86594394620430
UNKNOWN                 
1 87730U          25256.39663097  .00000062  00000+0  49619-4 0  9998
2 87730  82.9437 300.9650 0028561 254.7430 105.0568 13.74485088572928
UNKNOWN                 
1 87737U          25256.37078601  .00000014  00000+0  58064-4 0  9995
2 87737  99.3873 130.0857 0134016  65.3776 296.1265 13.72319518591462
UNKNOWN                 
1 87764U          25255.87672273  .00008158  00000+0  14090-2 0  9990
2 87764  65.6737  52.1696 0369976 124.6204  23.9284 14.32649411606090
UNKNOWN                 
1 87771U          25254.33759675  .00000061  00000+0  26124-3 0  9997
2 87771 100.7532  88.4676 0119132 211.6850 147.7054 13.19483984522905
UNKNOWN                 
1 87782U          25256.34861661  .00001974  00000+0  66973-2 0  9990
2 87782 102.3110 116.2083 0063702  30.3075 330.1681 12.99762473556243
UNKNOWN                 
1 87843U          25256.08760711  .00002283  00000+0  52654-2 0  9998
2 87843  99.6685  17.8896 0242568 216.6145 141.8178 13.16067457552233
UNKNOWN                 
1 87845U          25256.39995709  .00000477  00000+0  94433-3 0  9996
2 87845  98.8407 231.6971 0577220 101.6147 265.0300 12.88534150553570
UNKNOWN                 
1 87878U          25246.03580664  .00008072  00000+0  25753-2 0  9999
2 87878  99.1502 358.6037 0036664 200.6231 159.3477 14.39619245596805
UNKNOWN                 
1 87884U          25251.56760783  .00000232  00000+0  15115-3 0  9994
2 87884  98.7300 358.7773 0153576 336.4672  22.9520 14.05883005604994
UNKNOWN                 
1 87934U          25247.62789794  .00000121  00000+0  11412-3 0  9998
2 87934  82.9400  12.9501 0029762 313.4953  58.2350 13.73088260590711
UNKNOWN                 
1 87991U          25254.37853157 -.00000466  00000+0 -10258-2 0  9996
2 87991  28.6231 287.8296 0901111 128.2972 240.2095 12.34820329511579
UNKNOWN                 
1 87998U          25244.75967728  .00001620  00000+0  91487-3 0  9999
2 87998  98.6000 254.6988 0026744 172.5970 187.5602 14.11406448534512
UNKNOWN                 
1 88030U          25242.37329146 -.00000773  24431-5  00000+0 0  9995
2 88030  97.6020 109.2169 0009655 254.1610 105.9143 16.00292379    21
UNKNOWN                 
1 89003U          25254.49213090  .00000279  00000+0  10455-3 0  9991
2 89003  74.0470 183.8555 0016736 265.0888  94.8354 14.36102206618305
UNKNOWN                 
1 89005U          25255.48953894  .00001267  00000+0  30164-3 0  9993
2 89005  97.8466  91.4968 0193030 312.6819  45.8250 14.44764736520914
UNKNOWN                 
1 89029U          25256.53171826  .00004123  00000+0  40138-3 0  9999
2 89029  98.0523 153.6024 0021431 262.4303  97.4481 14.92941563637619
UNKNOWN                 
1 89067U          25255.95099387  .00817003  33268-3  10630-2 0  9995
2 89067  80.9268 334.8872 0054751  51.8489 308.7701 16.03927567573789
UNKNOWN                 
1 89101U          25252.11180896 -.00000061  00000+0 -51862-4 0  9993
2 89101 100.4480 191.8828 0147432 319.4005  39.6181 13.03988005542510
UNKNOWN                 
1 89132U          25255.69122352 -.00000706  00000+0 -89060-3 0  9992
2 89132  63.4382 156.0315 2936311 319.6653  21.9172  8.86143599317040
UNKNOWN                 
1 89146U          25256.26736704  .00003636  00000+0  69111-3 0  9991
2 89146  98.2365 185.1435 0094981 339.6533  20.0894 14.61913284615658
UNKNOWN                 
1 89161U          25255.47445495  .00038774  00000+0  15161-2 0  9990
2 89161  97.6717 268.0892 0051543  30.8318 329.5928 15.24490155534613
UNKNOWN                 
1 89172U          25256.43367044  .00006593  00000+0  11159-2 0  9999
2 89172  82.0668 306.4391 0303663 197.9114 161.1194 14.43091661588850
UNKNOWN                 
1 89177U          25256.49014639  .00000065  00000+0  53311-4 0  9995
2 89177  82.9251 336.0492 0033131  35.9758 324.3618 13.73706625 50435
UNKNOWN                 
1 89183U          25255.72491530  .00000497  00000+0  47489-3 0  9993
2 89183  99.2141 168.9112 0132229  38.9919 322.0679 13.81425861594403
UNKNOWN                 
1 89184U          25256.44251049  .00010171  00000+0  15025-2 0  9993
2 89184  98.3981 117.4063 0013327  59.4790 300.7732 14.75390735478838
UNKNOWN                 
1 89213U          25255.45583981  .00000415  00000+0  29150-3 0  9994
2 89213  98.7905 133.3537 0228994  17.2916 343.5883 13.91439596439974
UNKNOWN                 
1 89251U          25254.75974567  .00015303  00000+0  86086-2 0  9994
2 89251  62.4683 123.4239 2854374  92.1176 300.4590  9.21806922364697
UNKNOWN                 
1 89261U          25256.26351048  .00000658  00000+0  20940-3 0  9991
2 89261  98.1513 254.5850 0014422  75.5991 284.6799 14.42832738520760
UNKNOWN                 
1 89304U          25256.38755926  .00019369  00000+0  29458-1 0  9995
2 89304  84.4463 127.6472 2835512 101.1651  48.4621  8.99960257430259
UNKNOWN                 
1 89314U          25255.89777959  .00001564  00000+0  28080-2 0  9990
2 89314  18.9798 225.9447 6971218 176.7956 192.9180  2.59873527 86481
UNKNOWN                 
1 89349U          25256.29453835  .00000470  00000+0  16193-2 0  9994
2 89349  90.2493   5.3077 0032563 143.7330 216.6005 12.96203893467037
UNKNOWN                 
1 89379U          25255.78415551  .00002831  00000+0  37311-2 0  9991
2 89379 100.4867 264.3461 0044289 353.6590   6.3983 13.61712464568393
UNKNOWN                 
1 89395U          25235.42751828 -.00000343  00000+0 -33964-2 0  9996
2 89395 102.3492 209.9724 0225238 315.3228 198.5611 12.01490914511375
UNKNOWN                 
1 89403U          25256.26103253  .00000967  00000+0  32494-2 0  9991
2 89403  90.2511   3.7452 0030719 107.8040 280.9190 12.98515042466085
UNKNOWN                 
1 89484U          25256.49311477  .00016613  00000+0  23107-1 0  9999
2 89484  84.1168 180.0281 2821450 144.1800 238.6198  9.04962283347232
UNKNOWN                 
1 89493U          25255.13981399  .00001602  00000+0  81744-3 0  9990
2 89493  99.0321 322.7878 0080811 299.0395  60.2700 14.15513433450982
UNKNOWN                 
1 89494U          25255.47265047  .00001615  00000+0  82407-3 0  9994
2 89494  99.0335 323.0223 0081553 298.0984  61.1963 14.15450538450889
